INTELSAT 902 (IS-902)   
1 26900U 01039A   26194.47983875 -.00000292  00000+0  00000+0 0  9995
2 26900   6.1810  71.4600 0004415  38.2391 304.2870  1.00270383 90954
INTELSAT 904 (IS-904)   
1 27380U 02007A   26194.41219659 -.00000235  00000+0  00000+0 0  9997
2 27380   6.9831  68.8659 0005362  24.3166 315.0289  1.00271020 52029
DIRECTV 5 (TEMPO 1)     
1 27426U 02023A   26194.51024640 -.00000065  00000+0  00000+0 0  9992
2 27426   4.9426  74.9804 0003029  44.1195 245.8613  1.00271116 88383
INTELSAT 905 (IS-905)   
1 27438U 02027A   26194.51738623  .00000084  00000+0  00000+0 0  9992
2 27438   6.8171  69.4788 0003443  46.7281 224.2350  1.00271302 51621
GALAXY 3C (G-3C)        
1 27445U 02030A   26194.13725292 -.00000158  00000+0  00000+0 0  9993
2 27445   3.7981  77.6387 0001495  36.4860 131.4738  1.00270623 46756
INTELSAT 906 (IS-906)   
1 27513U 02041A   26194.21727284  .00000005  00000+0  00000+0 0  9993
2 27513   5.8663  72.6001 0003876  22.4752 338.3809  1.00272740 87293
GALAXY 13 (HORIZONS-1)  
1 27954U 03044A   26194.52262471  .00000127  00000+0  00000+0 0  9997
2 27954   1.4852  83.5286 0002162  26.9286 219.0706  1.00270538 46837
INTELSAT 10-02          
1 28358U 04022A   26193.99046975 -.00000012  00000+0  00000+0 0  9996
2 28358   0.0534 251.1781 0000515 344.4139  50.8437  1.00271565 80815
DIRECTV 8               
1 28659U 05019A   26194.51009345 -.00000002  00000+0  00000+0 0  9995
2 28659   0.0145 342.1932 0003020 144.6341 229.1369  1.00271379 77336
GALAXY 28 (G-28)        
1 28702U 05022A   26194.27045498 -.00000206  00000+0  00000+0 0  9996
2 28702   3.3636  78.6126 0002307  32.1993 250.5910  1.00270676 52234
GALAXY 16 (G-16)        
1 29236U 06023A   26194.50246549 -.00000130  00000+0  00000+0 0  9993
2 29236   0.0279 169.1758 0002538 317.3215 246.7665  1.00271432 73230
DIRECTV 9S              
1 29494U 06043A   26194.51503030 -.00000119  00000+0  00000+0 0  9990
2 29494   2.4863  80.5839 0004982  33.5801 261.4343  1.00270971 51645
GALAXY 17 (G-17)        
1 31307U 07016B   26194.33308943 -.00000212  00000+0  00000+0 0  9997
2 31307   3.0354  79.5702 0003549  34.5905 211.9325  1.00270253 70064
INTELSAT 11 (IS-11)     
1 32253U 07044B   26194.27799500 -.00000118  00000+0  00000+0 0  9990
2 32253   3.6309  78.3524 0004116 100.7185 223.1796  0.99051585 68704
HORIZONS-2              
1 32388U 07063B   26194.47507205 -.00000259  00000+0  00000+0 0  9997
2 32388   2.6675  80.3028 0003522  19.1831 289.0858  1.00269706 68070
DIRECTV 11              
1 32729U 08013A   26194.40716786 -.00000129  00000+0  00000+0 0  9997
2 32729   0.0114 268.1640 0000124 271.7931 158.7216  1.00272539 45856
GALAXY 18 (G-18)        
1 32951U 08024A   26194.51215646  .00000021  00000+0  00000+0 0  9997
2 32951   0.0180  40.4081 0002807  85.1682 227.1816  1.00270959 46117
GALAXY 19 (G-19)        
1 33376U 08045A   26194.50176912 -.00000143  00000+0  00000+0 0  9999
2 33376   0.0623 250.4882 0002280 234.0938 250.4324  1.00272604 65165
FM-5                    
1 35493U 09034A   26194.47264537 -.00000203  00000+0  00000+0 0  9994
2 35493   0.0458 261.1815 0000863  84.8646  29.2941  1.00269842 46908
INTELSAT 14 (IS-14)     
1 36097U 09064A   26194.12436051 -.00000276  00000+0  00000+0 0  9992
2 36097   0.0155  42.2389 0002221  77.1990 171.3473  1.00270601 60869
INTELSAT 15 (IS-15)     
1 36106U 09067A   26194.36373726 -.00000188  00000+0  00000+0 0  9993
2 36106   0.0187  64.5648 0002090  56.9721  25.8011  1.00270883 41492
DIRECTV 12              
1 36131U 09075A   26193.89907914 -.00000104  00000+0  00000+0 0  9997
2 36131   0.0059 118.1538 0000376 110.5275 283.0374  1.00271042 46817
INTELSAT 16 (IS-16)     
1 36397U 10006A   26194.47463872 -.00000248  00000+0  00000+0 0  9991
2 36397   0.0117  19.8432 0002282 117.3052 248.8664  1.00270436 59914
XM-5                    
1 37185U 10053A   26194.27598828 -.00000026  00000+0  00000+0 0  9991
2 37185   0.0648 265.0318 0001728 322.3275  47.9546  1.00270903 57741
INTELSAT 17 (IS-17)     
1 37238U 10065B   26194.50280551 -.00000005  00000+0  00000+0 0  9997
2 37238   0.0074 161.3408 0002543 318.4250  58.6153  1.00270015 53514
INTELSAT 28 (IS-28)     
1 37392U 11016A   26194.41210992 -.00000230  00000+0  00000+0 0  9997
2 37392   1.8716  82.2967 0003674  39.8842 285.7483  1.00271362 53543
INTELSAT 18 (IS-18)     
1 37834U 11056A   26194.49836655  .00000049  00000+0  00000+0 0  9997
2 37834   0.0147 334.0087 0001673 150.3595 166.4118  1.00270292 54075
INTELSAT 22 (IS-22)     
1 38098U 12011A   26194.50401884  .00000000  00000+0  00000+0 0  9993
2 38098   0.0443  73.2744 0001978  61.7149  49.9309  1.00271298  7451
INTELSAT 19 (IS-19)     
1 38356U 12030A   26194.09489087 -.00000059  00000+0  00000+0 0  9991
2 38356   0.0120  58.0489 0003060  67.3891   5.6958  1.00271181 50714
INTELSAT 20 (IS-20)     
1 38740U 12043A   26194.22892255 -.00000027  00000+0  00000+0 0  9997
2 38740   0.0123  63.9668 0001297 108.1868 269.8663  1.00272631 51007
INTELSAT 21 (IS-21)     
1 38749U 12045A   26194.12176050 -.00000287  00000+0  00000+0 0  9993
2 38749   0.0180  36.3687 0001702  85.8183 154.6640  1.00275983 50789
